EUTELSAT 7A             
1 28187U 04008A   25352.95442003  .00000123  00000+0  00000+0 0  9996
2 28187   5.3729  74.1817 0000851 186.9313  31.0864  1.00269979 79547
EUTELSAT 174A           
1 28924U 05052A   25352.65977527  .00000031  00000+0  00000+0 0  9994
2 28924   3.7615  78.7846 0005802 191.2691 229.0113  1.00269480 50523
EUTELSAT HOTBIRD 13B    
1 29270U 06032A   25352.84582601  .00000180  00000+0  00000+0 0  9999
2 29270   1.1957  84.3219 0003500 178.8854 162.0751  1.00273094 45491
EUTELSAT HOTBIRD 13C    
1 33459U 08065A   25352.82935925 -.00000260  00000+0  00000+0 0  9990
2 33459   2.4864  81.3550 0003447 180.7696  73.8236  1.00272375 45530
EUTELSAT 36B            
1 36101U 09065A   25352.93100608  .00000137  00000+0  00000+0 0  9994
2 36101   0.0481  31.5418 0005717 235.1163 206.7850  1.00272003 58904
EUTELSAT KA-SAT 9A      
1 37258U 10069A   25352.84105932  .00000087  00000+0  00000+0 0  9993
2 37258   0.0492 339.0841 0001939 204.3509 216.0566  1.00272699 42193
EUTELSAT 7 WEST A       
1 37816U 11051A   25352.88447457 -.00000035  00000+0  00000+0 0  9994
2 37816   0.0617 356.1394 0005209 233.0123 169.6948  1.00272110 52062
EUTELSAT 16A            
1 37836U 11057A   25352.84244600  .00000129  00000+0  00000+0 0  9996
2 37836   0.0615 334.1272 0005805 293.9296 138.9475  1.00269993  5518
