<?xml version="1.0" encoding="UTF-8"?>
<ndm xmlns:xsi="http://www.w3.org/2001/XMLSchema-instance" xsi:noNamespaceSchemaLocation="https://sanaregistry.org/r/ndmxml_unqualified/ndmxml-2.0.0-master-2.0.xsd">
<omm id="CCSDS_OMM_VERS" version="2.0">
<header><CREATION_DATE/><ORIGINATOR/></header><body><segment><metadata><OBJECT_NAME>EUTELSAT 7A</OBJECT_NAME><OBJECT_ID>2004-008A</OBJECT_ID><CENTER_NAME>EARTH</CENTER_NAME><REF_FRAME>TEME</REF_FRAME><TIME_SYSTEM>UTC</TIME_SYSTEM><MEAN_ELEMENT_THEORY>SGP4</MEAN_ELEMENT_THEORY></metadata><data><meanElements><EPOCH>2025-12-18T22:54:21.890592</EPOCH><MEAN_MOTION>1.00269979</MEAN_MOTION><ECCENTRICITY>.00008512</ECCENTRICITY><INCLINATION>5.3729</INCLINATION><RA_OF_ASC_NODE>74.1817</RA_OF_ASC_NODE><ARG_OF_PERICENTER>186.9313</ARG_OF_PERICENTER><MEAN_ANOMALY>31.0864</MEAN_ANOMALY></meanElements><tleParameters><EPHEMERIS_TYPE>0</EPHEMERIS_TYPE><CLASSIFICATION_TYPE>U</CLASSIFICATION_TYPE><NORAD_CAT_ID>28187</NORAD_CAT_ID><ELEMENT_SET_NO>999</ELEMENT_SET_NO><REV_AT_EPOCH>7954</REV_AT_EPOCH><BSTAR>0</BSTAR><MEAN_MOTION_DOT>.123E-5</MEAN_MOTION_DOT><MEAN_MOTION_DDOT>0</MEAN_MOTION_DDOT></tleParameters></data></segment></body></omm>
<omm id="CCSDS_OMM_VERS" version="2.0">
<header><CREATION_DATE/><ORIGINATOR/></header><body><segment><metadata><OBJECT_NAME>EUTELSAT 174A</OBJECT_NAME><OBJECT_ID>2005-052A</OBJECT_ID><CENTER_NAME>EARTH</CENTER_NAME><REF_FRAME>TEME</REF_FRAME><TIME_SYSTEM>UTC</TIME_SYSTEM><MEAN_ELEMENT_THEORY>SGP4</MEAN_ELEMENT_THEORY></metadata><data><meanElements><EPOCH>2025-12-18T15:50:04.583328</EPOCH><MEAN_MOTION>1.00269480</MEAN_MOTION><ECCENTRICITY>.00058029</ECCENTRICITY><INCLINATION>3.7615</INCLINATION><RA_OF_ASC_NODE>78.7846</RA_OF_ASC_NODE><ARG_OF_PERICENTER>191.2691</ARG_OF_PERICENTER><MEAN_ANOMALY>229.0113</MEAN_ANOMALY></meanElements><tleParameters><EPHEMERIS_TYPE>0</EPHEMERIS_TYPE><CLASSIFICATION_TYPE>U</CLASSIFICATION_TYPE><NORAD_CAT_ID>28924</NORAD_CAT_ID><ELEMENT_SET_NO>999</ELEMENT_SET_NO><REV_AT_EPOCH>5052</REV_AT_EPOCH><BSTAR>0</BSTAR><MEAN_MOTION_DOT>.31E-6</MEAN_MOTION_DOT><MEAN_MOTION_DDOT>0</MEAN_MOTION_DDOT></tleParameters></data></segment></body></omm>
<omm id="CCSDS_OMM_VERS" version="2.0">
<header><CREATION_DATE/><ORIGINATOR/></header><body><segment><metadata><OBJECT_NAME>EUTELSAT HOTBIRD 13B</OBJECT_NAME><OBJECT_ID>2006-032A</OBJECT_ID><CENTER_NAME>EARTH</CENTER_NAME><REF_FRAME>TEME</REF_FRAME><TIME_SYSTEM>UTC</TIME_SYSTEM><MEAN_ELEMENT_THEORY>SGP4</MEAN_ELEMENT_THEORY></metadata><data><meanElements><EPOCH>2025-12-18T20:17:59.367264</EPOCH><MEAN_MOTION>1.00273094</MEAN_MOTION><ECCENTRICITY>.00035001</ECCENTRICITY><INCLINATION>1.1957</INCLINATION><RA_OF_ASC_NODE>84.3219</RA_OF_ASC_NODE><ARG_OF_PERICENTER>178.8854</ARG_OF_PERICENTER><MEAN_ANOMALY>162.0751</MEAN_ANOMALY></meanElements><tleParameters><EPHEMERIS_TYPE>0</EPHEMERIS_TYPE><CLASSIFICATION_TYPE>U</CLASSIFICATION_TYPE><NORAD_CAT_ID>29270</NORAD_CAT_ID><ELEMENT_SET_NO>999</ELEMENT_SET_NO><REV_AT_EPOCH>4549</REV_AT_EPOCH><BSTAR>0</BSTAR><MEAN_MOTION_DOT>.18E-5</MEAN_MOTION_DOT><MEAN_MOTION_DDOT>0</MEAN_MOTION_DDOT></tleParameters></data></segment></body></omm>
<omm id="CCSDS_OMM_VERS" version="2.0">
<header><CREATION_DATE/><ORIGINATOR/></header><body><segment><metadata><OBJECT_NAME>EUTELSAT HOTBIRD 13C</OBJECT_NAME><OBJECT_ID>2008-065A</OBJECT_ID><CENTER_NAME>EARTH</CENTER_NAME><REF_FRAME>TEME</REF_FRAME><TIME_SYSTEM>UTC</TIME_SYSTEM><MEAN_ELEMENT_THEORY>SGP4</MEAN_ELEMENT_THEORY></metadata><data><meanElements><EPOCH>2025-12-18T19:54:16.639200</EPOCH><MEAN_MOTION>1.00272375</MEAN_MOTION><ECCENTRICITY>.00034474</ECCENTRICITY><INCLINATION>2.4864</INCLINATION><RA_OF_ASC_NODE>81.3550</RA_OF_ASC_NODE><ARG_OF_PERICENTER>180.7696</ARG_OF_PERICENTER><MEAN_ANOMALY>73.8236</MEAN_ANOMALY></meanElements><tleParameters><EPHEMERIS_TYPE>0</EPHEMERIS_TYPE><CLASSIFICATION_TYPE>U</CLASSIFICATION_TYPE><NORAD_CAT_ID>33459</NORAD_CAT_ID><ELEMENT_SET_NO>999</ELEMENT_SET_NO><REV_AT_EPOCH>4553</REV_AT_EPOCH><BSTAR>0</BSTAR><MEAN_MOTION_DOT>-.26E-5</MEAN_MOTION_DOT><MEAN_MOTION_DDOT>0</MEAN_MOTION_DDOT></tleParameters></data></segment></body></omm>
<omm id="CCSDS_OMM_VERS" version="2.0">
<header><CREATION_DATE/><ORIGINATOR/></header><body><segment><metadata><OBJECT_NAME>EUTELSAT 36B</OBJECT_NAME><OBJECT_ID>2009-065A</OBJECT_ID><CENTER_NAME>EARTH</CENTER_NAME><REF_FRAME>TEME</REF_FRAME><TIME_SYSTEM>UTC</TIME_SYSTEM><MEAN_ELEMENT_THEORY>SGP4</MEAN_ELEMENT_THEORY></metadata><data><meanElements><EPOCH>2025-12-18T22:20:38.925312</EPOCH><MEAN_MOTION>1.00272003</MEAN_MOTION><ECCENTRICITY>.00057179</ECCENTRICITY><INCLINATION>0.0481</INCLINATION><RA_OF_ASC_NODE>31.5418</RA_OF_ASC_NODE><ARG_OF_PERICENTER>235.1163</ARG_OF_PERICENTER><MEAN_ANOMALY>206.7850</MEAN_ANOMALY></meanElements><tleParameters><EPHEMERIS_TYPE>0</EPHEMERIS_TYPE><CLASSIFICATION_TYPE>U</CLASSIFICATION_TYPE><NORAD_CAT_ID>36101</NORAD_CAT_ID><ELEMENT_SET_NO>999</ELEMENT_SET_NO><REV_AT_EPOCH>5890</REV_AT_EPOCH><BSTAR>0</BSTAR><MEAN_MOTION_DOT>.137E-5</MEAN_MOTION_DOT><MEAN_MOTION_DDOT>0</MEAN_MOTION_DDOT></tleParameters></data></segment></body></omm>
<omm id="CCSDS_OMM_VERS" version="2.0">
<header><CREATION_DATE/><ORIGINATOR/></header><body><segment><metadata><OBJECT_NAME>EUTELSAT KA-SAT 9A</OBJECT_NAME><OBJECT_ID>2010-069A</OBJECT_ID><CENTER_NAME>EARTH</CENTER_NAME><REF_FRAME>TEME</REF_FRAME><TIME_SYSTEM>UTC</TIME_SYSTEM><MEAN_ELEMENT_THEORY>SGP4</MEAN_ELEMENT_THEORY></metadata><data><meanElements><EPOCH>2025-12-18T20:11:07.525248</EPOCH><MEAN_MOTION>1.00272699</MEAN_MOTION><ECCENTRICITY>.00019391</ECCENTRICITY><INCLINATION>0.0492</INCLINATION><RA_OF_ASC_NODE>339.0841</RA_OF_ASC_NODE><ARG_OF_PERICENTER>204.3509</ARG_OF_PERICENTER><MEAN_ANOMALY>216.0566</MEAN_ANOMALY></meanElements><tleParameters><EPHEMERIS_TYPE>0</EPHEMERIS_TYPE><CLASSIFICATION_TYPE>U</CLASSIFICATION_TYPE><NORAD_CAT_ID>37258</NORAD_CAT_ID><ELEMENT_SET_NO>999</ELEMENT_SET_NO><REV_AT_EPOCH>4219</REV_AT_EPOCH><BSTAR>0</BSTAR><MEAN_MOTION_DOT>.87E-6</MEAN_MOTION_DOT><MEAN_MOTION_DDOT>0</MEAN_MOTION_DDOT></tleParameters></data></segment></body></omm>
<omm id="CCSDS_OMM_VERS" version="2.0">
<header><CREATION_DATE/><ORIGINATOR/></header><body><segment><metadata><OBJECT_NAME>EUTELSAT 7 WEST A</OBJECT_NAME><OBJECT_ID>2011-051A</OBJECT_ID><CENTER_NAME>EARTH</CENTER_NAME><REF_FRAME>TEME</REF_FRAME><TIME_SYSTEM>UTC</TIME_SYSTEM><MEAN_ELEMENT_THEORY>SGP4</MEAN_ELEMENT_THEORY></metadata><data><meanElements><EPOCH>2025-12-18T21:13:38.602848</EPOCH><MEAN_MOTION>1.00272110</MEAN_MOTION><ECCENTRICITY>.00052092</ECCENTRICITY><INCLINATION>0.0617</INCLINATION><RA_OF_ASC_NODE>356.1394</RA_OF_ASC_NODE><ARG_OF_PERICENTER>233.0123</ARG_OF_PERICENTER><MEAN_ANOMALY>169.6948</MEAN_ANOMALY></meanElements><tleParameters><EPHEMERIS_TYPE>0</EPHEMERIS_TYPE><CLASSIFICATION_TYPE>U</CLASSIFICATION_TYPE><NORAD_CAT_ID>37816</NORAD_CAT_ID><ELEMENT_SET_NO>999</ELEMENT_SET_NO><REV_AT_EPOCH>5206</REV_AT_EPOCH><BSTAR>0</BSTAR><MEAN_MOTION_DOT>-.35E-6</MEAN_MOTION_DOT><MEAN_MOTION_DDOT>0</MEAN_MOTION_DDOT></tleParameters></data></segment></body></omm>
<omm id="CCSDS_OMM_VERS" version="2.0">
<header><CREATION_DATE/><ORIGINATOR/></header><body><segment><metadata><OBJECT_NAME>EUTELSAT 16A</OBJECT_NAME><OBJECT_ID>2011-057A</OBJECT_ID><CENTER_NAME>EARTH</CENTER_NAME><REF_FRAME>TEME</REF_FRAME><TIME_SYSTEM>UTC</TIME_SYSTEM><MEAN_ELEMENT_THEORY>SGP4</MEAN_ELEMENT_THEORY></metadata><data><meanElements><EPOCH>2025-12-18T20:13:07.334400</EPOCH><MEAN_MOTION>1.00269993</MEAN_MOTION><ECCENTRICITY>.00058058</ECCENTRICITY><INCLINATION>0.0615</INCLINATION><RA_OF_ASC_NODE>334.1272</RA_OF_ASC_NODE><ARG_OF_PERICENTER>293.9296</ARG_OF_PERICENTER><MEAN_ANOMALY>138.9475</MEAN_ANOMALY></meanElements><tleParameters><EPHEMERIS_TYPE>0</EPHEMERIS_TYPE><CLASSIFICATION_TYPE>U</CLASSIFICATION_TYPE><NORAD_CAT_ID>37836</NORAD_CAT_ID><ELEMENT_SET_NO>999</ELEMENT_SET_NO><REV_AT_EPOCH>551</REV_AT_EPOCH><BSTAR>0</BSTAR><MEAN_MOTION_DOT>.129E-5</MEAN_MOTION_DOT><MEAN_MOTION_DDOT>0</MEAN_MOTION_DDOT></tleParameters></data></segment></body></omm>

</ndm>
